309P/LINEAR,e,17.0233,10.1411,49.9794,4.371083,0.1078501,0.61758119,223.7651,10/14.0/2020,2000,g 15.0,4.0
# From MPC 98566
310P/Hill,e,13.1280,8.9264,31.8583,4.177714,0.1154240,0.42174300,232.3248,10/14.0/2020,2000,g 13.5,4.0
# From MPC109593
311P/PANSTARRS,e,4.9699,279.2276,144.5829,2.188664,0.3043936,0.11540282,1.9989,10/14.0/2020,2000,g 17.0,4.0
# From MPEC 2020-SI8
312P/NEAT,e,19.7683,144.6698,207.5286,3.466350,0.1527198,0.42785773,2.9033,10/14.0/2020,2000,g 16.0,4.0
# From MPEC 2020-SI8
313P/Gibbs,e,10.9833,105.9724,254.6381,3.161606,0.1753244,0.23488348,31.8601,10/14.0/2020,2000,g 15.0,4.0
# From MPC105243
314P/Montani,e,3.9793,267.6181,214.1962,7.273560,0.0502439,0.41614189,73.6728,10/14.0/2020,2000,g  9.5,4.0
# From MPC115888
315P/LONEOS,e,17.7956,69.0568,65.6494,4.939436,0.0897817,0.52217364,126.8366,10/14.0/2020,2000,g 11.0,4.0
# From MPC 92279
316P/LONEOS-Christensen,e,9.8676,246.7283,193.7039,4.352958,0.1085244,0.15918769,197.3981,10/14.0/2020,2000,g 13.5,4.0
# From MPEC 2020-C98
317P/WISE,e,11.9509,275.5194,334.9104,2.965170,0.1930322,0.57042902,3.4386,10/14.0/2020,2000,g 17.5,4.0
# From MPC102103
318P/McNaught-Hartley,e,17.8741,35.6263,313.1294,7.497047,0.0480141,0.67502946,87.2413,10/14.0/2020,2000,g  8.5,6.0
# From MPC 97499
319P/Catalina-McNaught,e,15.0953,111.3791,203.6277,3.568419,0.1462144,0.66655654,282.0053,10/14.0/2020,2000,g 15.0,4.0
# From MPC 96281
320P/McNaught,e,4.9089,295.9301,0.7784,3.093702,0.1811284,0.68572479,342.7667,10/14.0/2020,2000,g 20.5,4.0
# From MPC105243
321P/SOHO,e,20.0582,165.0351,172.7308,2.423211,0.2612866,0.98107992,0.0000,01/17.2636/2020,2000,g 20.0,4.0
# From MPC102103
322P/SOHO,e,11.4607,351.4755,56.9279,2.508195,0.2481202,0.97977503,0.0000,08/31.4787/2019,2000,g 19.0,4.0
# From MPEC 2016-Y36
323P/SOHO,e,5.3385,324.3749,353.0518,2.581998,0.2375584,0.98484138,0.0000,01/17.7617/2021,2000,g 20.0,4.0
# From MPC108598
324P/La Sagra,e,21.4181,270.6450,57.8697,3.097081,0.1808320,0.15469274,322.9629,10/14.0/2020,2000,g 13.0,4.0
# From MPC114609
325P/Yang-Gao,e,16.6979,257.5764,343.6850,3.524096,0.1489815,0.59366735,280.8782,10/14.0/2020,2000,g 14.0,4.0
# From MPC103849
326P/Hill,e,2.4708,99.8138,278.5856,4.064211,0.1202928,0.31740818,218.8708,10/14.0/2020,2000,g 13.5,4.0
# From MPC 97499
327P/Van Ness,e,36.2457,173.9750,185.0231,3.562752,0.1465635,0.56284758,259.0807,10/14.0/2020,2000,g 16.0,4.0
# From MPC109148
328P/LONEOS-Tucker,e,17.6695,341.6238,30.4814,4.195715,0.1146820,0.55174952,201.3298,10/14.0/2020,2000,g 14.5,4.0
# From MPC101101
329P/LINEAR-Catalina,e,21.6659,87.6826,343.5479,5.192623,0.0832959,0.67690030,148.2645,10/14.0/2020,2000,g 13.5,4.0
# From MPC105243
330P/Catalina,e,15.6944,293.0955,188.9981,6.631794,0.0577109,0.54859170,87.0737,10/14.0/2020,2000,g 12.0,4.0
# From MPC110497
331P/Gibbs,e,9.7395,216.7788,183.7536,3.003483,0.1893504,0.04071052,2.7142,10/14.0/2020,2000,g 12.0,4.0
# From MPEC 2016-K18
332P/Ikeya-Murakami,e,9.3802,3.7913,152.3601,3.088502,0.1815860,0.48943073,303.9889,10/14.0/2020,2000,g 18.0,4.0
# From MPEC 2016-EI8
332P-B/Ikeya-Murakami,e,9.3805,3.8028,152.3711,3.082329,0.1821317,0.48970701,359.9699,03/17.0/2016,2000,g 19.0,4.0
# From MPEC 2016-K18
332P-C/Ikeya-Murakami,e,9.3793,3.7917,152.3514,3.088468,0.1815890,0.48943616,304.0022,10/14.0/2020,2000,g 16.5,4.0
# From MPEC 2016-ED0
332P-D/Ikeya-Murakami,e,9.3761,3.7923,152.4393,3.081138,0.1822373,0.48977814,359.9486,03/17.0/2016,2000,g 19.0,4.0
# From MPEC 2016-ED0
332P-E/Ikeya-Murakami,e,9.3774,3.8228,152.2825,3.079877,0.1823493,0.48922008,359.9889,03/17.0/2016,2000,g 21.0,4.0
# From MPEC 2016-ED0
332P-F/Ikeya-Murakami,e,9.5293,3.4757,152.8203,3.163214,0.1751908,0.49918860,359.8501,03/17.0/2016,2000,g 21.0,4.0
# From MPEC 2016-ED0
332P-G/Ikeya-Murakami,e,9.2523,3.6955,154.4000,3.050519,0.1849880,0.49200362,359.9006,03/19.0/2016,2000,g 19.0,4.0
# From MPC100285
332P-H/Ikeya-Murakami,e,9.3798,3.7914,152.3521,3.088651,0.1815728,0.48947130,303.9421,10/14.0/2020,2000,g 19.0,4.0
# From MPEC 2016-ED0
332P-I/Ikeya-Murakami,e,9.3791,3.8048,152.3297,3.081767,0.1821815,0.48955490,359.9360,03/17.0/2016,2000,g 20.5,2.0
# From MPEC 2016-EI8
332P-J/Ikeya-Murakami,e,9.4296,3.6729,152.7712,3.115165,0.1792596,0.49429435,359.8613,03/17.0/2016,2000,g 20.5,2.0
# From MPEC 2020-L06
333P/LINEAR,e,131.9826,115.6273,26.0316,4.219108,0.1137295,0.73662445,188.4561,10/14.0/2020,2000,g 15.0,4.0
# From MPC115888
334P/NEAT,e,20.4687,90.7210,89.9290,6.837554,0.0551255,0.35309693,67.4484,10/14.0/2020,2000,g 10.5,4.0
# From MPC100285
335P/Gibbs,e,7.2922,330.8442,162.2373,3.578798,0.1455789,0.54537856,262.8537,10/14.0/2020,2000,g 17.0,4.0
# From MPC105244
336P/McNaught,e,17.8340,298.2265,308.7386,5.030841,0.0873460,0.44549648,117.8291,10/14.0/2020,2000,g 13.5,4.0
# From MPC115888
337P/WISE,e,15.3734,106.0716,160.9851,3.287634,0.1653404,0.49688177,256.6643,10/14.0/2020,2000,g 17.0,4.0
# From MPC104796
338P/McNaught,e,25.3726,9.7869,4.3968,3.898067,0.1280649,0.41112044,182.0551,10/14.0/2020,2000,g 12.0,4.0
# From MPC101101
339P/Gibbs,e,5.7351,172.7435,27.5240,3.695814,0.1387199,0.63579204,214.1985,10/14.0/2020,2000,g 17.0,4.0
# From MPC102957
340P/Boattini,e,2.0796,291.7272,35.8021,4.251556,0.1124300,0.28064036,160.1140,10/14.0/2020,2000,g 13.0,4.0
# From MPC109148
341P/Gibbs,e,3.7949,29.9924,312.1219,4.294327,0.1107545,0.41518860,177.1649,10/14.0/2020,2000,g 12.5,4.0
# From MPC101101
342P/SOHO,e,11.7122,29.0888,71.9734,3.043986,0.1855839,0.98303921,0.0000,10/19.1586/2021,2000,g  9.0,4.0
# From MPC109148
343P/NEAT-LONEOS,e,5.5834,257.2291,137.3725,5.461716,0.0772166,0.58385180,104.6359,10/14.0/2020,2000,g 14.0,4.0
# From MPC109148
344P/Read,e,3.4904,273.1866,140.4014,4.867256,0.0917863,0.42157004,132.4932,10/14.0/2020,2000,g 13.0,4.0
# From MPC109148
345P/LINEAR,e,2.7267,154.5001,196.3573,4.039976,0.1213769,0.22069428,188.1611,10/14.0/2020,2000,g 12.0,4.0
# From MPC110086
346P/Catalina,e,22.1857,102.4682,336.0084,4.476440,0.1040651,0.50230133,139.2571,10/14.0/2020,2000,g 14.0,4.0
# From MPC108599
347P/PANSTARRS,e,11.7482,261.0409,98.3028,3.606971,0.1438766,0.38546098,214.7832,10/14.0/2020,2000,g 15.0,4.0
# From MPEC 2020-SI8
348P/PANSTARRS,e,17.7395,312.9406,135.4668,3.153112,0.1760333,0.30661552,274.4351,10/14.0/2020,2000,g 14.0,4.0
# From MPC112394
349P/Lemmon,e,5.4910,331.7475,256.0521,3.572277,0.1459777,0.29932024,167.1433,10/14.0/2020,2000,g 14.0,4.0
# From MPC111775
350P/McNaught,e,7.3563,65.3762,140.7059,4.095583,0.1189133,0.09092393,122.5682,10/14.0/2020,2000,g 14.0,4.0
# From MPC105244
351P/Wiegert-PANSTARRS,e,12.7901,283.4494,352.6354,4.437073,0.1054531,0.29606989,188.8829,10/14.0/2020,2000,g 12.5,4.0
# From MPC110086
352P/Skiff,e,21.0089,28.0927,309.1429,6.635508,0.0576624,0.61814643,69.7569,10/14.0/2020,2000,g 11.5,4.0
# From MPEC 2020-AA5
353P/McNaught,e,28.4252,121.5629,230.3741,4.171483,0.1156827,0.46991848,118.8687,10/14.0/2020,2000,g 14.5,4.0
# From MPC105545
354P/LINEAR,e,5.2555,320.1290,133.0393,2.289977,0.2844181,0.12566829,48.2275,10/14.0/2020,2000,g 15.5,4.0
# From MPEC 2020-AA5
355P/LINEAR-NEAT,e,11.0364,51.4390,336.2494,3.472529,0.1523124,0.50687365,167.1190,10/14.0/2020,2000,g 15.5,2.0
# From MPC109148
356P/WISE,e,9.6354,160.7902,226.0214,4.160710,0.1161323,0.35467428,119.8448,10/14.0/2020,2000,g 14.0,4.0
# From MPC114609
357P/Hill,e,6.3100,44.5803,1.4191,4.461826,0.1045767,0.43451005,90.8982,10/14.0/2020,2000,g 15.5,4.0
# From MPEC 2020-HN5
358P/PANSTARRS,e,11.0572,85.7136,299.7335,3.148398,0.1764289,0.23814600,161.7060,10/14.0/2020,2000,g 18.0,4.0
# From MPC110086
359P/LONEOS,e,10.2655,149.7576,200.1324,4.639556,0.0986256,0.32392211,113.4089,10/14.0/2020,2000,g 13.5,4.0
# From MPC108599
360P/WISE,e,24.0974,2.1927,354.1150,3.702876,0.1383233,0.49864158,159.3462,10/14.0/2020,2000,g 19.5,6.0
# From MPC114609
361P/Spacewatch,e,13.8879,203.2534,219.0979,4.940372,0.0897562,0.43782629,74.9348,10/14.0/2020,2000,g 12.0,4.0
# From MPEC 2017-V13
362P/,e,15.5583,192.5839,53.6884,3.967884,0.1246997,0.27979903,188.5690,10/14.0/2020,2000,g 12.9,2.0
# From MPC114609
363P/Lemmon,e,5.2039,148.1541,339.9586,3.520232,0.1492269,0.53942374,140.0858,10/14.0/2020,2000,g 17.5,4.0
# From MPC114609
364P/PANSTARRS,e,12.1448,46.2063,211.9886,2.878947,0.2017686,0.72241243,170.0171,10/14.0/2020,2000,g 17.0,2.0
# From MPC111775
365P/PANSTARRS,e,9.8349,87.3902,66.2189,3.178699,0.1739122,0.57556586,169.6709,10/14.0/2020,2000,g 17.0,4.0
# From MPC114610
366P/Spacewatch,e,8.8594,70.7552,153.1630,3.495561,0.1508095,0.34845772,123.0546,10/14.0/2020,2000,g 15.0,4.0
# From MPC112395
367P/Catalina,e,8.4634,58.7174,172.9225,3.505251,0.1501846,0.28048582,127.0163,10/14.0/2020,2000,g 17.5,2.0
# From MPC114610
368P/NEAT,e,15.4828,257.9631,118.7788,5.526716,0.0758583,0.62619868,57.6973,10/14.0/2020,2000,g 14.0,4.0
# From MPC114610
369P/Hill,e,10.3110,47.3025,13.2066,4.385747,0.1073096,0.55420983,78.3307,10/14.0/2020,2000,g 15.0,4.0
# From MPC114610
370P/NEAT,e,19.4004,55.1350,356.6978,6.436566,0.0603563,0.61439024,51.7620,10/14.0/2020,2000,g 13.0,4.0
# From MPC114610
371P/LINEAR-Skiff,e,17.3774,67.3183,308.4531,4.181389,0.1152719,0.47641993,85.3334,10/14.0/2020,2000,g 16.0,4.0
# From MPEC 2020-K19
372P/McNaught,e,9.5097,325.8185,27.1851,4.503036,0.1031445,0.15260366,74.6652,10/14.0/2020,2000,g 13.5,4.0
# From MPC114610
373P/Rinner,e,13.7593,231.9493,221.1412,3.804793,0.1328029,0.39217307,73.5867,10/14.0/2020,2000,g 14.5,4.0
# From MPC114610
374P/Larson,e,10.7610,7.9139,51.5282,4.974990,0.0888210,0.46234137,57.0519,10/14.0/2020,2000,g 14.0,4.0
# From MPC114610
375P/Hill,e,17.3614,359.9451,119.4749,5.558987,0.0751987,0.65877173,49.8386,10/14.0/2020,2000,g 16.0,4.0
# From MPEC 2020-SI8
376P/LONEOS,e,1.1938,314.8340,285.1751,5.865036,0.0693902,0.51816574,26.4819,10/14.0/2020,2000,g 12.5,4.0
# From MPC115888
377P/Scotti,e,9.0226,226.0593,354.9952,6.712384,0.0566747,0.25261554,5.3526,10/14.0/2020,2000,g  9.5,4.0
# From MPEC 2019-TG9
378P/McNaught,e,19.0995,94.5154,194.0656,6.380056,0.0611600,0.47008850,359.5729,10/14.0/2020,2000,g 12.0,4.0
